CCSDS_OMM_VERS = 2.0
CREATION_DATE  = 
ORIGINATOR     = 

OBJECT_NAME    = IDEFIX & ARIANE 42P R/B
OBJECT_ID      = 2002-021B
CENTER_NAME    = EARTH
REF_FRAME      = TEME
TIME_SYSTEM    = UTC
MEAN_ELEMENT_THEORY = SGP/SGP4

EPOCH          = 2026-02-02T12:51:14.133600
MEAN_MOTION    = 14.30999107
ECCENTRICITY   = .00108026
INCLINATION    = 98.5837
RA_OF_ASC_NODE = 332.5701
ARG_OF_PERICENTER = 294.1860
MEAN_ANOMALY   = 65.8193

EPHEMERIS_TYPE = 0
CLASSIFICATION_TYPE = U
NORAD_CAT_ID   = 27422
ELEMENT_SET_NO = 999
REV_AT_EPOCH   = 23899
BSTAR          = .14044616E-3
MEAN_MOTION_DOT = .326E-5
MEAN_MOTION_DDOT = 0

CCSDS_OMM_VERS = 2.0
CREATION_DATE  = 
ORIGINATOR     = 

OBJECT_NAME    = AQUA
OBJECT_ID      = 2002-022A
CENTER_NAME    = EARTH
REF_FRAME      = TEME
TIME_SYSTEM    = UTC
MEAN_ELEMENT_THEORY = SGP/SGP4

EPOCH          = 2026-02-02T13:59:31.624224
MEAN_MOTION    = 14.61885036
ECCENTRICITY   = .00016977
INCLINATION    = 98.4112
RA_OF_ASC_NODE = 0.3262
ARG_OF_PERICENTER = 58.4006
MEAN_ANOMALY   = 54.0284

EPHEMERIS_TYPE = 0
CLASSIFICATION_TYPE = U
NORAD_CAT_ID   = 27424
ELEMENT_SET_NO = 999
REV_AT_EPOCH   = 26360
BSTAR          = .24090319E-3
MEAN_MOTION_DOT = .1156E-4
MEAN_MOTION_DDOT = 0

CCSDS_OMM_VERS = 2.0
CREATION_DATE  = 
ORIGINATOR     = 

OBJECT_NAME    = CZ-4B R/B
OBJECT_ID      = 2002-024C
CENTER_NAME    = EARTH
REF_FRAME      = TEME
TIME_SYSTEM    = UTC
MEAN_ELEMENT_THEORY = SGP/SGP4

EPOCH          = 2026-02-02T15:45:49.978944
MEAN_MOTION    = 14.14541005
ECCENTRICITY   = .00510442
INCLINATION    = 98.8913
RA_OF_ASC_NODE = 87.2271
ARG_OF_PERICENTER = 122.0281
MEAN_ANOMALY   = 49.5516

EPHEMERIS_TYPE = 0
CLASSIFICATION_TYPE = U
NORAD_CAT_ID   = 27432
ELEMENT_SET_NO = 999
REV_AT_EPOCH   = 22428
BSTAR          = .58417392E-4
MEAN_MOTION_DOT = .69E-6
MEAN_MOTION_DDOT = 0

CCSDS_OMM_VERS = 2.0
CREATION_DATE  = 
ORIGINATOR     = 

OBJECT_NAME    = MIDORI II (ADEOS-II)
OBJECT_ID      = 2002-056A
CENTER_NAME    = EARTH
REF_FRAME      = TEME
TIME_SYSTEM    = UTC
MEAN_ELEMENT_THEORY = SGP/SGP4

EPOCH          = 2026-02-02T10:49:22.900800
MEAN_MOTION    = 14.29256351
ECCENTRICITY   = .00021148
INCLINATION    = 98.7708
RA_OF_ASC_NODE = 351.6997
ARG_OF_PERICENTER = 92.3416
MEAN_ANOMALY   = 267.8007

EPHEMERIS_TYPE = 0
CLASSIFICATION_TYPE = U
NORAD_CAT_ID   = 27597
ELEMENT_SET_NO = 999
REV_AT_EPOCH   = 20526
BSTAR          = .15260155E-3
MEAN_MOTION_DOT = .343E-5
MEAN_MOTION_DDOT = 0

CCSDS_OMM_VERS = 2.0
CREATION_DATE  = 
ORIGINATOR     = 

OBJECT_NAME    = H-2A R/B
OBJECT_ID      = 2002-056E
CENTER_NAME    = EARTH
REF_FRAME      = TEME
TIME_SYSTEM    = UTC
MEAN_ELEMENT_THEORY = SGP/SGP4

EPOCH          = 2026-02-02T11:22:36.082272
MEAN_MOTION    = 14.33733574
ECCENTRICITY   = .00689967
INCLINATION    = 98.3139
RA_OF_ASC_NODE = 355.1944
ARG_OF_PERICENTER = 266.6047
MEAN_ANOMALY   = 203.0728

EPHEMERIS_TYPE = 0
CLASSIFICATION_TYPE = U
NORAD_CAT_ID   = 27601
ELEMENT_SET_NO = 999
REV_AT_EPOCH   = 20906
BSTAR          = .13467266E-3
MEAN_MOTION_DOT = .342E-5
MEAN_MOTION_DDOT = 0

CCSDS_OMM_VERS = 2.0
CREATION_DATE  = 
ORIGINATOR     = 

OBJECT_NAME    = CZ-4B R/B
OBJECT_ID      = 2003-049C
CENTER_NAME    = EARTH
REF_FRAME      = TEME
TIME_SYSTEM    = UTC
MEAN_ELEMENT_THEORY = SGP/SGP4

EPOCH          = 2026-02-02T14:04:48.891072
MEAN_MOTION    = 14.54978734
ECCENTRICITY   = .00478293
INCLINATION    = 98.6838
RA_OF_ASC_NODE = 27.1255
ARG_OF_PERICENTER = 340.2377
MEAN_ANOMALY   = 19.6965

EPHEMERIS_TYPE = 0
CLASSIFICATION_TYPE = U
NORAD_CAT_ID   = 28059
ELEMENT_SET_NO = 999
REV_AT_EPOCH   = 18149
BSTAR          = .13868281E-3
MEAN_MOTION_DOT = .554E-5
MEAN_MOTION_DDOT = 0

CCSDS_OMM_VERS = 2.0
CREATION_DATE  = 
ORIGINATOR     = 

OBJECT_NAME    = CZ-2C R/B
OBJECT_ID      = 2004-012C
CENTER_NAME    = EARTH
REF_FRAME      = TEME
TIME_SYSTEM    = UTC
MEAN_ELEMENT_THEORY = SGP/SGP4

EPOCH          = 2026-02-02T13:50:09.148128
MEAN_MOTION    = 15.60512851
ECCENTRICITY   = .00165815
INCLINATION    = 97.7319
RA_OF_ASC_NODE = 95.6406
ARG_OF_PERICENTER = 81.2611
MEAN_ANOMALY   = 279.0522

EPHEMERIS_TYPE = 0
CLASSIFICATION_TYPE = U
NORAD_CAT_ID   = 28222
ELEMENT_SET_NO = 999
REV_AT_EPOCH   = 19879
BSTAR          = .64067943E-3
MEAN_MOTION_DOT = .53255E-3
MEAN_MOTION_DDOT = 0

CCSDS_OMM_VERS = 2.0
CREATION_DATE  = 
ORIGINATOR     = 

OBJECT_NAME    = SL-16 R/B
OBJECT_ID      = 2004-021B
CENTER_NAME    = EARTH
REF_FRAME      = TEME
TIME_SYSTEM    = UTC
MEAN_ELEMENT_THEORY = SGP/SGP4

EPOCH          = 2026-02-02T05:48:37.370016
MEAN_MOTION    = 14.14589390
ECCENTRICITY   = .0002729
INCLINATION    = 71.0011
RA_OF_ASC_NODE = 306.8848
ARG_OF_PERICENTER = 98.3777
MEAN_ANOMALY   = 261.7654

EPHEMERIS_TYPE = 0
CLASSIFICATION_TYPE = U
NORAD_CAT_ID   = 28353
ELEMENT_SET_NO = 999
REV_AT_EPOCH   = 11782
BSTAR          = -.44787E-4
MEAN_MOTION_DOT = -.134E-5
MEAN_MOTION_DDOT = 0

CCSDS_OMM_VERS = 2.0
CREATION_DATE  = 
ORIGINATOR     = 

OBJECT_NAME    = CZ-4B R/B
OBJECT_ID      = 2004-035C
CENTER_NAME    = EARTH
REF_FRAME      = TEME
TIME_SYSTEM    = UTC
MEAN_ELEMENT_THEORY = SGP/SGP4

EPOCH          = 2026-02-02T13:30:47.219328
MEAN_MOTION    = 15.28397595
ECCENTRICITY   = .00343435
INCLINATION    = 97.3543
RA_OF_ASC_NODE = 68.2354
ARG_OF_PERICENTER = 93.4006
MEAN_ANOMALY   = 267.1164

EPHEMERIS_TYPE = 0
CLASSIFICATION_TYPE = U
NORAD_CAT_ID   = 28415
ELEMENT_SET_NO = 999
REV_AT_EPOCH   = 17454
BSTAR          = .32001632E-3
MEAN_MOTION_DOT = .893E-4
MEAN_MOTION_DDOT = 0

CCSDS_OMM_VERS = 2.0
CREATION_DATE  = 
ORIGINATOR     = 

OBJECT_NAME    = CZ-2C R/B
OBJECT_ID      = 2004-046B
CENTER_NAME    = EARTH
REF_FRAME      = TEME
TIME_SYSTEM    = UTC
MEAN_ELEMENT_THEORY = SGP/SGP4

EPOCH          = 2026-02-02T08:32:33.296352
MEAN_MOTION    = 14.26978415
ECCENTRICITY   = .01381824
INCLINATION    = 98.1999
RA_OF_ASC_NODE = 310.5336
ARG_OF_PERICENTER = 259.3355
MEAN_ANOMALY   = 99.2241

EPHEMERIS_TYPE = 0
CLASSIFICATION_TYPE = U
NORAD_CAT_ID   = 28480
ELEMENT_SET_NO = 999
REV_AT_EPOCH   = 10346
BSTAR          = .77359613E-4
MEAN_MOTION_DOT = .166E-5
MEAN_MOTION_DDOT = 0

CCSDS_OMM_VERS = 2.0
CREATION_DATE  = 
ORIGINATOR     = 

OBJECT_NAME    = ARIANE 5 R/B
OBJECT_ID      = 2004-049H
CENTER_NAME    = EARTH
REF_FRAME      = TEME
TIME_SYSTEM    = UTC
MEAN_ELEMENT_THEORY = SGP/SGP4

EPOCH          = 2026-02-02T11:10:16.314240
MEAN_MOTION    = 14.85187142
ECCENTRICITY   = .00854761
INCLINATION    = 98.2570
RA_OF_ASC_NODE = 200.6188
ARG_OF_PERICENTER = 105.0664
MEAN_ANOMALY   = 256.0027

EPHEMERIS_TYPE = 0
CLASSIFICATION_TYPE = U
NORAD_CAT_ID   = 28499
ELEMENT_SET_NO = 999
REV_AT_EPOCH   = 14056
BSTAR          = .13269383E-3
MEAN_MOTION_DOT = .115E-4
MEAN_MOTION_DDOT = 0

CCSDS_OMM_VERS = 2.0
CREATION_DATE  = 
ORIGINATOR     = 

OBJECT_NAME    = CZ-2D R/B
OBJECT_ID      = 2005-024B
CENTER_NAME    = EARTH
REF_FRAME      = TEME
TIME_SYSTEM    = UTC
MEAN_ELEMENT_THEORY = SGP/SGP4

EPOCH          = 2026-02-02T12:36:04.932576
MEAN_MOTION    = 15.57059794
ECCENTRICITY   = .00068677
INCLINATION    = 97.3611
RA_OF_ASC_NODE = 47.4658
ARG_OF_PERICENTER = 131.7874
MEAN_ANOMALY   = 228.3969

EPHEMERIS_TYPE = 0
CLASSIFICATION_TYPE = U
NORAD_CAT_ID   = 28738
ELEMENT_SET_NO = 999
REV_AT_EPOCH   = 13430
BSTAR          = .55447219E-3
MEAN_MOTION_DOT = .40174E-3
MEAN_MOTION_DDOT = 0

