IDEFIX & ARIANE 42P R/B 
1 27422U 02021B   26033.53558025  .00000326  00000+0  14045-3 0  9996
2 27422  98.5837 332.5701 0010802 294.1860  65.8193 14.30999107238997
AQUA                    
1 27424U 02022A   26033.58300491  .00001156  00000+0  24090-3 0  9999
2 27424  98.4112   0.3262 0001697  58.4006  54.0284 14.61885036263607
CZ-4B R/B               
1 27432U 02024C   26033.65682846  .00000069  00000+0  58417-4 0  9998
2 27432  98.8913  87.2271 0051044 122.0281  49.5516 14.14541005224288
MIDORI II (ADEOS-II)    
1 27597U 02056A   26033.45095950  .00000343  00000+0  15260-3 0  9990
2 27597  98.7708 351.6997 0002114  92.3416 267.8007 14.29256351205267
H-2A R/B                
1 27601U 02056E   26033.47402873  .00000342  00000+0  13467-3 0  9990
2 27601  98.3139 355.1944 0068996 266.6047 203.0728 14.33733574209060
CZ-4B R/B               
1 28059U 03049C   26033.58667698  .00000554  00000+0  13868-3 0  9991
2 28059  98.6838  27.1255 0047829 340.2377  19.6965 14.54978734181497
CZ-2C R/B               
1 28222U 04012C   26033.57649477  .00053255  00000+0  64068-3 0  9992
2 28222  97.7319  95.6406 0016581  81.2611 279.0522 15.60512851198799
SL-16 R/B               
1 28353U 04021B   26033.24209919 -.00000134  00000+0 -44787-4 0  9991
2 28353  71.0011 306.8848 0002729  98.3777 261.7654 14.14589390117825
CZ-4B R/B               
1 28415U 04035C   26033.56304652  .00008930  00000+0  32002-3 0  9996
2 28415  97.3543  68.2354 0034343  93.4006 267.1164 15.28397595174542
CZ-2C R/B               
1 28480U 04046B   26033.35594093  .00000166  00000+0  77360-4 0  9997
2 28480  98.1999 310.5336 0138182 259.3355  99.2241 14.26978415103463
ARIANE 5 R/B            
1 28499U 04049H   26033.46546660  .00001150  00000+0  13269-3 0  9990
2 28499  98.2570 200.6188 0085476 105.0664 256.0027 14.85187142140561
CZ-2D R/B               
1 28738U 05024B   26033.52505709  .00040174  00000+0  55447-3 0  9999
2 28738  97.3611  47.4658 0006867 131.7874 228.3969 15.57059794134301
